MEAN_MOTION;ECCENTRICITY;INCLINATION;RA_OF_ASC_NODE;ARG_OF_PERICENTER;MEAN_ANOMALY;BSTAR;MEAN_MOTION_DOT;MEAN_MOTION_DDOT;TYPE
14.32708782;0.0001085;45.0412;50.6126;148.6906;211.4005;6.9273E-5;4.9E-7;0;Orbcomm
14.32708811;0.0001104;45.0413;49.6299;150.245;209.846;6.7501E-5;4.4E-7;0;Orbcomm
14.32709026;0.0001149;45.0413;46.0268;154.9048;205.1855;6.6254E-5;4.1E-7;0;Orbcomm
14.32709251;0.0001181;45.0414;44.0616;157.31;202.7799;6.9029E-5;4.9E-7;0;Orbcomm
14.32709406;0.0001218;45.0414;41.4412;160.6526;199.4367;6.5226E-5;3.8E-7;0;Orbcomm
14.32709655;0.0001253;45.0415;39.1484;163.1532;196.9356;6.5829E-5;4.0E-7;0;Orbcomm
14.32709844;0.0001286;45.0415;36.8555;165.8322;194.2561;6.4813E-5;3.7E-7;0;Orbcomm
14.32709996;0.0001311;45.0416;35.2178;167.1925;192.8955;6.4469E-5;3.6E-7;0;Orbcomm
14.32710417;0.0001379;45.0417;30.3046;172.3863;187.7004;6.282E-5;3.2E-7;0;Orbcomm
14.32710645;0.000143;45.0417;27.3566;175.5472;184.5388;6.2054E-5;3.0E-7;0;Orbcomm
14.32710996;0.0001488;45.0417;23.0984;179.1984;180.8865;6.5912E-5;4.0E-7;0;Orbcomm
14.32711064;0.0001524;45.0418;21.1331;179.4891;180.5958;6.6402E-5;4.1E-7;0;Orbcomm
14.32711247;0.000165;45.0419;13.2719;187.6584;172.4238;5.5596E-5;1.2E-7;0;Orbcomm
14.32711296;0.0001675;45.0419;11.6343;188.9567;171.125;5.5081E-5;1.0E-7;0;Orbcomm
14.32711413;0.0001717;45.0419;9.0138;191.2737;168.8071;5.4549E-5;9.0E-8;0;Orbcomm
14.3271174;0.0001794;45.042;4.1007;194.8938;165.1856;5.591E-5;1.3E-7;0;Orbcomm
14.32711785;0.00018;45.042;3.7732;195.1436;164.9357;5.7035E-5;1.6E-7;0;Orbcomm
14.32712258;0.0001874;45.042;359.1876;198.5964;161.4814;6.6143E-5;4.1E-7;0;Orbcomm
14.32712389;0.0001883;45.042;358.2051;199.2289;160.8487;6.8969E-5;4.9E-7;0;Orbcomm
14.32712483;0.0001895;45.042;357.5499;199.5482;160.5292;7.0581E-5;5.3E-7;0;Orbcomm
14.32712796;0.0001948;45.042;354.602;202.1082;157.9681;7.1329E-5;5.5E-7;0;Orbcomm
14.3271293;0.0001962;45.0419;353.2919;202.9956;157.0803;7.2019E-5;5.7E-7;0;Orbcomm
14.32713125;0.0001984;45.042;351.6542;204.5611;155.5142;7.3487E-5;6.1E-7;0;Orbcomm
14.32713414;0.0002018;45.0419;349.6889;205.6543;154.4203;7.8998E-5;7.6E-7;0;Orbcomm
14.32713703;0.0002052;45.0419;347.0686;207.7571;152.3166;8.0632E-5;8.1E-7;0;Orbcomm
14.32713836;0.0002082;45.0418;345.4308;208.8515;151.2217;8.033E-5;8.0E-7;0;Orbcomm
14.32714176;0.0002146;45.0417;340.8452;212.2389;147.8327;8.0172E-5;7.9E-7;0;Orbcomm
14.32714128;0.0002149;45.0417;340.5177;212.4799;147.5916;7.7404E-5;7.2E-7;0;Orbcomm
14.32714402;0.0002212;45.0415;335.6045;215.2616;144.8085;7.5434E-5;6.6E-7;0;Orbcomm
14.32714381;0.0002226;45.0414;334.6218;216.1887;143.8809;7.1504E-5;5.6E-7;0;Orbcomm
14.32714452;0.0002274;45.0414;331.0187;218.3464;141.7221;6.4217E-5;3.6E-7;0;Orbcomm
14.32714535;0.0002299;45.0413;329.3809;219.2779;140.7901;6.2723E-5;3.1E-7;0;Orbcomm
14.32714665;0.0002342;45.0412;326.4329;221.0553;139.0117;6.0012E-5;2.4E-7;0;Orbcomm
14.32714812;0.0002408;45.0411;321.847;223.6623;136.4033;4.984E-5;-4.0E-8;0;Orbcomm
14.32714829;0.0002409;45.0411;321.5195;223.871;136.1946;4.9687E-5;-4.0E-8;0;Orbcomm
14.32715089;0.0002462;45.041;316.9337;226.712;133.3522;4.4913E-5;-1.7E-7;0;Orbcomm
14.32715112;0.0002465;45.041;316.2786;227.3772;132.6868;4.3935E-5;-2.0E-7;0;Orbcomm
14.32715319;0.0002502;45.0409;313.6581;229.4302;130.6328;4.4589E-5;-1.8E-7;0;Orbcomm
14.32715391;0.0002512;45.0409;312.6755;229.9444;130.1183;4.4134E-5;-2.0E-7;0;Orbcomm
14.32715505;0.0002522;45.0408;311.3653;230.6987;129.3637;4.5174E-5;-1.7E-7;0;Orbcomm
14.32715698;0.0002553;45.0408;309.0723;232.7962;127.2652;4.7758E-5;-1.0E-7;0;Orbcomm
14.32715964;0.0002566;45.0408;307.4345;233.969;126.0919;5.507E-5;1.0E-7;0;Orbcomm
14.32716561;0.0002621;45.0407;303.1762;236.7396;123.32;7.1355E-5;5.5E-7;0;Orbcomm
14.32716611;0.0002615;45.0407;302.8487;237.2783;122.7812;7.4145E-5;6.3E-7;0;Orbcomm
14.32717131;0.000266;45.0405;298.2628;240.3582;119.7;8.5096E-5;9.3E-7;0;Orbcomm
14.32717531;0.00027;45.0404;294.6596;242.7583;117.2989;9.1103E-5;1.09E-6;0;Orbcomm
14.32718352;0.0002772;45.0402;285.4877;248.9149;111.1401;8.8535E-5;1.02E-6;0;Orbcomm
14.32718864;0.0002822;45.0402;279.919;252.0727;107.9812;8.2431E-5;8.6E-7;0;Orbcomm
14.32719283;0.0002862;45.0402;275.0056;255.0353;105.0177;7.4874E-5;6.5E-7;0;Orbcomm
14.32719316;0.0002867;45.0402;274.678;255.1672;104.8857;7.4562E-5;6.4E-7;0;Orbcomm
14.32719691;0.0002891;45.0402;270.0922;258.3917;101.6605;6.9341E-5;5.0E-7;0;Orbcomm
14.32719727;0.0002894;45.0402;269.7646;258.5425;101.5097;6.9181E-5;4.9E-7;0;Orbcomm
14.32720039;0.0002922;45.0402;266.1614;260.7634;99.2882;6.8441E-5;4.7E-7;0;Orbcomm
14.32720223;0.0002938;45.0402;262.5582;263.3698;96.6814;6.413E-5;3.5E-7;0;Orbcomm
14.32720341;0.0002939;45.0403;261.2483;264.3955;95.6557;6.4938E-5;3.8E-7;0;Orbcomm
14.32720697;0.0002948;45.0402;256.0071;267.9737;92.0772;6.6514E-5;4.2E-7;0;Orbcomm
14.32720835;0.000295;45.0401;253.059;269.9426;90.1082;6.375E-5;3.4E-7;0;Orbcomm
14.3272113;0.0002958;45.0401;248.4731;273.1252;86.9256;6.2251E-5;3.0E-7;0;Orbcomm
14.32721271;0.0002956;45.04;246.5077;274.484;85.5669;6.2008E-5;3.0E-7;0;Orbcomm
14.32721634;0.0002962;45.04;242.2495;277.4059;82.6451;6.2497E-5;3.1E-7;0;Orbcomm
14.32721661;0.0002961;45.04;241.9218;277.6917;82.3594;6.2201E-5;3.0E-7;0;Orbcomm
14.32722104;0.0002965;45.04;237.336;280.6814;79.3699;6.4423E-5;3.6E-7;0;Orbcomm
14.32722104;0.0002965;45.04;237.336;280.6814;79.3699;6.4423E-5;3.6E-7;0;Orbcomm
14.32722372;0.0002964;45.0401;234.3878;282.632;77.4195;6.5122E-5;3.8E-7;0;Orbcomm
14.3272279;0.0002961;45.0401;229.802;285.7884;74.2636;6.7636E-5;4.5E-7;0;Orbcomm
14.32723257;0.0002961;45.0402;224.5611;289.4569;70.5958;7.2811E-5;5.9E-7;0;Orbcomm
14.3272326;0.0002963;45.0402;224.2336;289.6996;70.3531;7.2214E-5;5.8E-7;0;Orbcomm
14.32723581;0.0002966;45.0402;220.6304;292.1277;67.9255;7.4308E-5;6.3E-7;0;Orbcomm
14.32723731;0.0002952;45.0402;219.3203;293.1622;66.8914;7.7247E-5;7.1E-7;0;Orbcomm
14.32723999;0.0002933;45.0401;214.407;296.6454;63.4092;7.1722E-5;5.6E-7;0;Orbcomm
14.32724275;0.0002907;45.04;209.8212;299.7394;60.3163;6.6404E-5;4.2E-7;0;Orbcomm
14.32724476;0.0002886;45.04;206.2182;302.2578;57.7989;6.0448E-5;2.5E-7;0;Orbcomm
14.32724543;0.0002881;45.0399;204.908;303.1846;56.8724;5.8E-5;1.8E-7;0;Orbcomm
14.32724716;0.0002854;45.0398;200.9772;305.835;54.2232;5.0906E-5;-1.0E-8;0;Orbcomm
14.32724926;0.0002823;45.0398;196.7191;309.3387;50.7209;4.4253E-5;-1.9E-7;0;Orbcomm
14.32725097;0.0002808;45.0397;193.4435;311.7604;48.3003;4.2304E-5;-2.5E-7;0;Orbcomm
14.32725243;0.0002788;45.0396;192.1332;312.8147;47.2465;4.6183E-5;-1.4E-7;0;Orbcomm
14.32725644;0.0002761;45.0396;188.2024;315.6483;44.4142;5.6254E-5;1.4E-7;0;Orbcomm
14.3272576;0.0002758;45.0396;187.5473;316.216;43.8467;6.0794E-5;2.6E-7;0;Orbcomm
14.32726246;0.0002698;45.0395;182.6338;320.1421;39.9228;7.2862E-5;5.9E-7;0;Orbcomm
14.32726833;0.0002648;45.0394;177.7204;324.0545;36.0124;8.6612E-5;9.7E-7;0;Orbcomm
14.32726866;0.0002644;45.0394;177.3928;324.342;35.725;8.6744E-5;9.7E-7;0;Orbcomm
14.32727356;0.0002607;45.0394;172.807;328.199;31.8699;9.095E-5;1.09E-6;0;Orbcomm
14.32727622;0.0002582;45.0393;170.1864;330.2809;29.7891;9.0193E-5;1.07E-6;0;Orbcomm
14.32727774;0.0002558;45.0393;168.2211;331.9996;28.0713;8.6208E-5;9.6E-7;0;Orbcomm
14.32728028;0.000252;45.0393;165.273;334.5114;25.5608;8.0583E-5;8.1E-7;0;Orbcomm
14.32727994;0.0002498;45.0392;163.6352;335.8766;24.1964;7.0291E-5;5.2E-7;0;Orbcomm
14.32728142;0.000245;45.0392;159.3768;339.6941;20.3807;5.4059E-5;8.0E-8;0;Orbcomm
14.32728317;0.0002393;45.0391;154.4634;344.3519;15.7253;3.8848E-5;-3.4E-7;0;Orbcomm
14.32728592;0.0002327;45.0391;149.5498;348.9618;11.1177;3.832E-5;-3.6E-7;0;Orbcomm
14.3272888;0.0002258;45.039;144.9637;353.4552;6.6264;4.4025E-5;-2.0E-7;0;Orbcomm
14.32729112;0.0002205;45.039;142.0154;356.2797;3.8033;5.0682E-5;-2.0E-8;0;Orbcomm
14.32729426;0.0002185;45.039;140.3777;358.2692;1.8147;6.3791E-5;3.4E-7;0;Orbcomm
14.32729608;0.0002135;45.0391;137.1018;1.6112;358.4742;6.4297E-5;3.6E-7;0;Orbcomm
14.32729795;0.0002122;45.0391;135.7916;3.2414;356.8446;6.991E-5;5.1E-7;0;Orbcomm
14.32730128;0.0002087;45.0392;132.1883;7.2945;352.7932;7.428E-5;6.3E-7;0;Orbcomm
14.32730266;0.000208;45.0392;131.2057;8.5443;351.5439;7.6842E-5;7.0E-7;0;Orbcomm
14.32730809;0.000203;45.0393;126.6197;13.9688;346.1214;8.0508E-5;8.0E-7;0;Orbcomm
14.32730844;0.0002025;45.0393;126.2922;14.3133;345.777;7.9957E-5;7.9E-7;0;Orbcomm
14.32731309;0.0001949;45.0395;121.7062;19.8207;340.2715;7.5828E-5;6.7E-7;0;Orbcomm
14.32731811;0.0001842;45.0397;114.8272;28.3972;331.6975;6.1721E-5;2.9E-7;0;Orbcomm
14.32731826;0.0001849;45.0398;113.8446;29.9935;330.1017;5.765E-5;1.7E-7;0;Orbcomm
14.32731979;0.0001763;45.04;107.9484;37.8601;322.2369;4.3391E-5;-2.2E-7;0;Orbcomm
14.32732121;0.0001728;45.0401;103.3626;44.5657;315.5329;3.9619E-5;-3.2E-7;0;Orbcomm
14.32732195;0.0001697;45.0402;99.7593;50;310.0995;3.7025E-5;-3.9E-7;0;Orbcomm
14.3273233;0.0001684;45.0403;96.156;55.8182;304.2825;3.8815E-5;-3.4E-7;0;Orbcomm
14.32732405;0.0001677;45.0404;94.8458;57.9602;302.1407;4.0158E-5;-3.1E-7;0;Orbcomm
14.32732449;0.0001682;45.0404;94.1906;59.1533;300.9479;4.1168E-5;-2.8E-7;0;Orbcomm
14.32732702;0.0001659;45.0406;89.6048;66.5663;293.5358;4.2784E-5;-2.3E-7;0;Orbcomm
14.3273296;0.0001652;45.0408;84.6914;74.5942;285.5088;4.0423E-5;-3.0E-7;0;Orbcomm
14.32733102;0.0001647;45.0409;82.3984;78.3317;281.7714;4.0526E-5;-3.0E-7;0;Orbcomm
14.32733239;0.0001655;45.041;80.1056;82.0905;278.0129;3.9376E-5;-3.3E-7;0;Orbcomm
14.3273347;0.0001664;45.0412;76.175;88.7031;271.4006;3.9216E-5;-3.3E-7;0;Orbcomm
14.32733663;0.0001669;45.0413;72.8994;94.1445;265.9592;3.9312E-5;-3.3E-7;0;Orbcomm
14.32733798;0.0001691;45.0414;70.9342;97.3157;262.7882;4.1567E-5;-2.7E-7;0;Orbcomm
14.32733918;0.0001703;45.0414;68.3137;101.6967;258.4071;4.1684E-5;-2.6E-7;0;Orbcomm
14.3273415;0.0001738;45.0415;64.0556;108.5761;251.5274;4.5098E-5;-1.7E-7;0;Orbcomm
14.32734179;0.000174;45.0415;63.4004;109.728;250.3755;4.4674E-5;-1.8E-7;0;Orbcomm
14.32734391;0.0001804;45.0416;58.8147;116.7428;243.3603;4.6433E-5;-1.3E-7;0;Orbcomm
